[{"OBJECT_NAME":"XIWANG-1 (HOPE-1)","OBJECT_ID":"2009-072B","EPOCH":"2026-03-09T21:54:41.953248","MEAN_MOTION":13.16437783,"ECCENTRICITY":0.00080951,"INCLINATION":100.3921,"RA_OF_ASC_NODE":24.3821,"ARG_OF_PERICENTER":99.0297,"MEAN_ANOMALY":261.1733,"EPHEMERIS_TYPE":0,"CLASSIFICATION_TYPE":"U","NORAD_CAT_ID":36122,"ELEMENT_SET_NO":999,"REV_AT_EPOCH":77994,"BSTAR":0.0011898647,"MEAN_MOTION_DOT":4.1e-6,"MEAN_MOTION_DDOT":0},{"OBJECT_NAME":"ONEWEB-0426","OBJECT_ID":"2021-132AF","EPOCH":"2026-03-09T20:09:20.587104","MEAN_MOTION":13.18689069,"ECCENTRICITY":0.00012833,"INCLINATION":87.9251,"RA_OF_ASC_NODE":355.1757,"ARG_OF_PERICENTER":59.3832,"MEAN_ANOMALY":300.7427,"EPHEMERIS_TYPE":0,"CLASSIFICATION_TYPE":"U","NORAD_CAT_ID":50498,"ELEMENT_SET_NO":999,"REV_AT_EPOCH":20849,"BSTAR":-0.0020859179,"MEAN_MOTION_DOT":-8.09e-6,"MEAN_MOTION_DDOT":0}]
